{
    "links": {
        "self": "http://www.neowsapp.com/rest/v1/neo/3764885?api_key=iIulBulltgU6a56xZRHN4H3l9WmuAYTsLGpBGhQ2"
    },
    "id": "3764885",
    "neo_reference_id": "3764885",
    "name": "(2016 WF10)",
    "designation": "2016 WF10",
    "nasa_jpl_url": "http://ssd.jpl.nasa.gov/sbdb.cgi?sstr=3764885",
    "absolute_magnitude_h": 22.8,
    "estimated_diameter": {
        "kilometers": {
            "estimated_diameter_min": 0.0732073989,
            "estimated_diameter_max": 0.1636967205
        },
        "meters": {
            "estimated_diameter_min": 73.2073989347,
            "estimated_diameter_max": 163.696720474
        },
        "miles": {
            "estimated_diameter_min": 0.0454889547,
            "estimated_diameter_max": 0.1017163949
        },
        "feet": {
            "estimated_diameter_min": 240.181762721,
            "estimated_diameter_max": 537.0627483999
        }
    },
    "is_potentially_hazardous_asteroid": false,
    "close_approach_data": [
        {
            "close_approach_date": "1970-03-26",
            "close_approach_date_full": "1970-Mar-26 22:47",
            "epoch_date_close_approach": 7339620000,
            "relative_velocity": {
                "kilometers_per_second": "20.9964747276",
                "kilometers_per_hour": "75587.3090193028",
                "miles_per_hour": "46967.0143181329"
            },
            "miss_distance": {
                "astronomical": "0.1465102275",
                "lunar": "56.9924784975",
                "kilometers": "21917617.967215425",
                "miles": "13618976.284505865"
            },
            "orbiting_body": "Venus"
        },
        {
            "close_approach_date": "2010-08-08",
            "close_approach_date_full": "2010-Aug-08 14:07",
            "epoch_date_close_approach": 1281276420000,
            "relative_velocity": {
                "kilometers_per_second": "11.1361560629",
                "kilometers_per_hour": "40090.1618266045",
                "miles_per_hour": "24910.4674972032"
            },
            "miss_distance": {
                "astronomical": "0.0845101249",
                "lunar": "32.8744385861",
                "kilometers": "12642534.678473963",
                "miles": "7855706.7752401694"
            },
            "orbiting_body": "Mars"
        },
        {
            "close_approach_date": "2014-12-10",
            "close_approach_date_full": "2014-Dec-10 18:22",
            "epoch_date_close_approach": 1418235720000,
            "relative_velocity": {
                "kilometers_per_second": "24.3218130416",
                "kilometers_per_hour": "87558.5269496225",
                "miles_per_hour": "54405.4635926696"
            },
            "miss_distance": {
                "astronomical": "0.2348575499",
                "lunar": "91.3595869111",
                "kilometers": "35134189.218458713",
                "miles": "21831372.8461397194"
            },
            "orbiting_body": "Earth"
        },
        {
            "close_approach_date": "2016-11-17",
            "close_approach_date_full": "2016-Nov-17 19:58",
            "epoch_date_close_approach": 1479412680000,
            "relative_velocity": {
                "kilometers_per_second": "13.2352003026",
                "kilometers_per_hour": "47646.7210895314",
                "miles_per_hour": "29605.8195569924"
            },
            "miss_distance": {
                "astronomical": "0.1376225504",
                "lunar": "53.5351721056",
                "kilometers": "20588040.403807648",
                "miles": "12792815.0962076224"
            },
            "orbiting_body": "Earth"
        },
        {
            "close_approach_date": "2018-08-17",
            "close_approach_date_full": "2018-Aug-17 18:20",
            "epoch_date_close_approach": 1534530000000,
            "relative_velocity": {
                "kilometers_per_second": "19.002075657",
                "kilometers_per_hour": "68407.472365088",
                "miles_per_hour": "42505.7430370737"
            },
            "miss_distance": {
                "astronomical": "0.1162569373",
                "lunar": "45.2239486097",
                "kilometers": "17391790.192803551",
                "miles": "10806757.3098129638"
            },
            "orbiting_body": "Venus"
        }
    ],
    "orbital_data": {
        "orbit_id": "5",
        "orbit_determination_date": "2017-04-06 08:21:46",
        "first_observation_date": "2016-11-28",
        "last_observation_date": "2016-12-18",
        "data_arc_in_days": 20,
        "observations_used": 30,
        "orbit_uncertainty": "8",
        "minimum_orbit_intersection": ".0236825",
        "jupiter_tisserand_invariant": "4.235",
        "epoch_osculation": "2457722.5",
        "eccentricity": ".5799910700444629",
        "semi_major_axis": "1.555783682691729",
        "inclination": "1.838242773940504",
        "ascending_node_longitude": "197.6099446655655",
        "orbital_period": "708.7976111906596",
        "perihelion_distance": ".653443039809638",
        "perihelion_argument": "143.2300226192733",
        "aphelion_distance": "2.458124325573821",
        "perihelion_time": "2457663.485545029069",
        "mean_anomaly": "29.97358266183604",
        "mean_motion": ".5079023889418323",
        "equinox": "J2000",
        "orbit_class": {
            "orbit_class_type": "APO",
            "orbit_class_description": "Near-Earth asteroid orbits which cross the Earth’s orbit similar to that of 1862 Apollo",
            "orbit_class_range": "a (semi-major axis) > 1.0 AU; q (perihelion) < 1.017 AU"
        }
    },
    "is_sentry_object": false
}